NORAD_CAT_ID,OBJECT_NAME,OBJECT_TYPE,EPOCH,MEAN_MOTION,ECCENTRICITY,INCLINATION,RA_OF_ASC_NODE,ARG_OF_PERICENTER,MEAN_ANOMALY,BSTAR,MEAN_MOTION_DOT,MEAN_MOTION_DDOT,TLE_LINE0,TLE_LINE1,TLE_LINE2,SEMIMAJOR_AXIS,PERIOD,APOGEE,PERIGEE,DECAYED
51792.0,STARLINK-3626,PAYLOAD,2024-04-12 12:25:31,15.08891639,0.0001761,53.2171,234.3568,78.1737,281.9452,-0.00076509,-0.00012461,0.0,0 STARLINK-3626,1 51792U 22017AA  24103.51772064 -.00012461  00000-0 -76509-3 0  9994,2 51792  53.2171 234.3568 0001761  78.1737 281.9452 15.08891639118870,6917.723,95.434,540.806,538.369,0.0
51792.0,STARLINK-3626,PAYLOAD,2024-04-12 14:00:55,15.08840546,0.000143,53.2173,234.0603,87.0119,273.1037,-2.7356e-05,-7.23e-06,0.0,0 STARLINK-3626,1 51792U 22017AA  24103.58397813 -.00000723  00000-0 -27356-4 0  9991,2 51792  53.2173 234.0603 0001430  87.0119 273.1037 15.08840546118889,6917.879,95.438,540.733,538.754,0.0
51792.0,STARLINK-3626,PAYLOAD,2024-04-13 13:51:42,15.08837577,0.0001373,53.217,229.5973,102.7287,257.3858,9.0037e-05,1.145e-05,0.0,0 STARLINK-3626,1 51792U 22017AA  24104.57757846  .00001145  00000-0  90037-4 0  9990,2 51792  53.2170 229.5973 0001373 102.7287 257.3858 15.08837577119035,6917.888,95.438,540.703,538.803,0.0
51792.0,STARLINK-3626,PAYLOAD,2024-04-14 12:07:07,15.08836974,0.0001304,53.2168,225.4351,87.7082,272.406,7.4677e-05,9.01e-06,0.0,0 STARLINK-3626,1 51792U 22017AA  24105.50494295  .00000901  00000-0  74677-4 0  9991,2 51792  53.2168 225.4351 0001304  87.7082 272.4060 15.08836974119174,6917.89,95.438,540.657,538.853,0.0
51792.0,STARLINK-3626,PAYLOAD,2024-04-14 15:17:53,15.08839844,0.0001329,53.2171,224.841,78.3519,281.7622,9.5812e-05,1.237e-05,0.0,0 STARLINK-3626,1 51792U 22017AA  24105.63742129  .00001237  00000-0  95812-4 0  9994,2 51792  53.2171 224.8410 0001329  78.3519 281.7622 15.08839844119193,6917.881,95.438,540.665,538.826,0.0
51792.0,STARLINK-3626,PAYLOAD,2024-04-15 13:33:17,15.0884189,0.0001444,53.2173,220.678,73.7033,286.4117,0.00011214,1.497e-05,0.0,0 STARLINK-3626,1 51792U 22017AA  24106.56478082  .00001497  00000-0  11214-3 0  9992,2 51792  53.2173 220.6780 0001444  73.7033 286.4117 15.08841890119338,6917.875,95.437,540.739,538.741,0.0
51792.0,STARLINK-3626,PAYLOAD,2024-04-16 13:24:03,15.08848579,0.0001356,53.2169,216.2173,78.1065,282.0079,0.00013438,1.852e-05,0.0,0 STARLINK-3626,1 51792U 22017AA  24107.55837571  .00001852  00000-0  13438-3 0  9999,2 51792  53.2169 216.2173 0001356  78.1065 282.0079 15.08848579119482,6917.854,95.437,540.657,538.781,0.0
51792.0,STARLINK-3626,PAYLOAD,2024-04-16 14:59:26,15.0885277,0.0001573,53.2165,215.9205,80.5145,279.6025,0.00024816,3.665e-05,0.0,0 STARLINK-3626,1 51792U 22017AA  24107.62461434  .00003665  00000-0  24816-3 0  9994,2 51792  53.2165 215.9205 0001573  80.5145 279.6025 15.08852770119499,6917.841,95.437,540.795,538.618,0.0
51792.0,STARLINK-3626,PAYLOAD,2024-04-17 13:14:51,15.08834665,0.0001436,53.2164,211.7546,105.9656,254.1495,-1.0694e-05,-4.58e-06,0.0,0 STARLINK-3626,1 51792U 22017AA  24108.55198313 -.00000458  00000-0 -10694-4 0  9999,2 51792  53.2164 211.7546 0001436 105.9656 254.1495 15.08834665119635,6917.897,95.438,540.755,538.768,0.0
51792.0,STARLINK-3626,PAYLOAD,2024-04-18 13:05:38,15.08836592,0.0001401,53.2166,207.293,105.0183,255.0964,1.9124e-05,1.6e-07,0.0,0 STARLINK-3626,1 51792U 22017AA  24109.54558679  .00000016  00000-0  19124-4 0  9999,2 51792  53.2166 207.2930 0001401 105.0183 255.0964 15.08836592119780,6917.891,95.438,540.725,538.787,0.0
51792.0,STARLINK-3626,PAYLOAD,2024-04-19 12:56:26,15.08835082,0.0001353,53.2166,202.8306,102.352,257.7623,0.00018023,2.581e-05,0.0,0 STARLINK-3626,1 51792U 22017AA  24110.53919242  .00002581  00000-0  18023-3 0  9992,2 51792  53.2166 202.8306 0001353 102.3520 257.7623 15.08835082119930,6917.895,95.438,540.696,538.824,0.0
51792.0,STARLINK-3626,PAYLOAD,2024-04-20 11:11:51,15.08807885,0.0001428,53.2169,198.6669,89.2405,270.8751,-0.0003956,-6.573e-05,0.0,0 STARLINK-3626,1 51792U 22017AA  24111.46656300 -.00006573  00000-0 -39560-3 0  9994,2 51792  53.2169 198.6669 0001428  89.2405 270.8751 15.08807885120070,6917.979,95.44,540.831,538.856,0.0
51792.0,STARLINK-3626,PAYLOAD,2024-04-21 11:02:37,15.08837872,0.0001518,53.2164,194.2074,104.9033,255.2127,0.00012338,1.676e-05,0.0,0 STARLINK-3626,1 51792U 22017AA  24112.46015915  .00001676  00000-0  12338-3 0  9997,2 51792  53.2164 194.2074 0001518 104.9033 255.2127 15.08837872120229,6917.887,95.438,540.802,538.702,0.0
51792.0,STARLINK-3626,PAYLOAD,2024-04-21 15:48:47,15.08834561,0.0001959,53.2164,193.3136,120.4222,239.6964,4.8167e-05,4.78e-06,0.0,0 STARLINK-3626,1 51792U 22017AA  24112.65888001  .00000478  00000-0  48167-4 0  9991,2 51792  53.2164 193.3136 0001959 120.4222 239.6964 15.08834561120250,6917.897,95.438,541.117,538.407,0.0
51792.0,STARLINK-3626,PAYLOAD,2024-04-22 10:53:23,15.08843118,0.0001792,53.2181,189.7666,110.1066,250.0119,0.00011263,1.505e-05,0.0,0 STARLINK-3626,1 51792U 22017AA  24113.45374881  .00001505  00000-0  11263-3 0  9994,2 51792  53.2181 189.7666 0001792 110.1066 250.0119 15.08843118120373,6917.871,95.437,540.976,538.496,0.0
51792.0,STARLINK-3626,PAYLOAD,2024-04-22 14:04:10,15.08827957,0.0001691,53.2169,189.1612,93.2141,266.9045,-0.00019032,-3.315e-05,0.0,0 STARLINK-3626,1 51792U 22017AA  24113.58623693 -.00003315  00000-0 -19032-3 0  9991,2 51792  53.2169 189.1612 0001691  93.2141 266.9045 15.08827957120396,6917.917,95.438,540.952,538.612,0.0
51792.0,STARLINK-3626,PAYLOAD,2024-04-23 12:19:34,15.08833815,0.0001711,53.2171,184.9965,75.4494,284.6688,-0.00016842,-2.967e-05,0.0,0 STARLINK-3626,1 51792U 22017AA  24114.51359952 -.00002967  00000-0 -16842-3 0  9997,2 51792  53.2171 184.9965 0001711  75.4494 284.6688 15.08833815120535,6917.899,95.438,540.948,538.581,0.0
51792.0,STARLINK-3626,PAYLOAD,2024-04-24 12:10:22,15.08844472,0.0001512,53.2157,180.5373,75.218,284.898,0.00061696,9.546e-05,0.0,0 STARLINK-3626,1 51792U 22017AA  24115.50720173  .00009546  00000-0  61696-3 0  9999,2 51792  53.2157 180.5373 0001512  75.2180 284.8980 15.08844472120687,6917.867,95.437,540.778,538.686,0.0
51792.0,STARLINK-3626,PAYLOAD,2024-04-25 10:25:45,15.08855192,0.0001657,53.216,176.3743,68.1985,291.9184,0.00041502,6.326e-05,0.0,0 STARLINK-3626,1 51792U 22017AA  24116.43455532  .00006326  00000-0  41502-3 0  9993,2 51792  53.2160 176.3743 0001657  68.1985 291.9184 15.08855192120821,6917.834,95.437,540.845,538.553,0.0
51792.0,STARLINK-3626,PAYLOAD,2024-04-26 13:27:18,15.08848718,0.0001231,53.2166,171.3143,77.2402,282.8727,1.5725e-05,-3.8e-07,0.0,0 STARLINK-3626,1 51792U 22017AA  24117.56062803 -.00000038  00000-0  15725-4 0  9997,2 51792  53.2166 171.3143 0001231  77.2402 282.8727 15.08848718120995,6917.854,95.437,540.57,538.867,0.0
51792.0,STARLINK-3626,PAYLOAD,2024-04-27 13:18:04,15.0884875,0.0001196,53.2165,166.8532,75.0783,285.0342,-3.1793e-06,-3.38e-06,0.0,0 STARLINK-3626,1 51792U 22017AA  24118.55422366 -.00000338  00000-0 -31793-5 0  9999,2 51792  53.2165 166.8532 0001196  75.0783 285.0342 15.08848750121145,6917.854,95.437,540.546,538.891,0.0
51792.0,STARLINK-3626,PAYLOAD,2024-04-27 19:39:36,15.08858879,0.0001336,53.2177,165.6655,73.8667,286.2472,3.8093e-05,3.19e-06,0.0,0 STARLINK-3626,1 51792U 22017AA  24118.81917366  .00000319  00000-0  38093-4 0  9993,2 51792  53.2177 165.6655 0001336  73.8667 286.2472 15.08858879121188,6917.823,95.436,540.612,538.763,0.0
51792.0,STARLINK-3626,PAYLOAD,2024-04-28 03:36:33,15.08844211,0.0003316,53.2168,164.1805,81.9175,278.2193,0.00014407,2.005e-05,0.0,0 STARLINK-3626,1 51792U 22017AA  24119.15038589  .00002005  00000-0  14407-3 0  9998,2 51792  53.2168 164.1805 0003316  81.9175 278.2193 15.08844211121235,6917.868,95.437,542.026,537.439,0.0
51792.0,STARLINK-3626,PAYLOAD,2024-04-28 09:58:05,15.08844792,0.0001175,53.2172,162.989,87.5072,272.6055,0.00012132,1.644e-05,0.0,0 STARLINK-3626,1 51792U 22017AA  24119.41534273  .00001644  00000-0  12132-3 0  9999,2 51792  53.2172 162.9890 0001175  87.5072 272.6055 15.08844792121272,6917.866,95.437,540.544,538.918,0.0
51792.0,STARLINK-3626,PAYLOAD,2024-04-28 19:30:23,15.08850923,0.0001078,53.2164,161.2038,83.2727,276.8388,0.00014904,2.086e-05,0.0,0 STARLINK-3626,1 51792U 22017AA  24119.81277650  .00002086  00000-0  14904-3 0  9996,2 51792  53.2164 161.2038 0001078  83.2727 276.8388 15.08850923121336,6917.847,95.437,540.458,538.966,0.0
51792.0,STARLINK-3626,PAYLOAD,2024-04-29 11:24:17,15.08825528,0.00013,53.2171,158.2337,91.0536,269.0605,-3.4085e-05,-8.3e-06,0.0,0 STARLINK-3626,1 51792U 22017AA  24120.47520226 -.00000830  00000-0 -34085-4 0  9990,2 51792  53.2171 158.2337 0001300  91.0536 269.0605 15.08825528121435,6917.925,95.438,540.689,538.89,0.0
51792.0,STARLINK-3626,PAYLOAD,2024-04-29 19:21:12,15.08833212,0.0001239,53.2167,156.7468,91.6862,268.4272,-4.8468e-05,-1.059e-05,0.0,0 STARLINK-3626,1 51792U 22017AA  24120.80639931 -.00001059  00000-0 -48468-4 0  9995,2 51792  53.2167 156.7468 0001239  91.6862 268.4272 15.08833212121484,6917.901,95.438,540.623,538.909,0.0
51792.0,STARLINK-3626,PAYLOAD,2024-04-30 09:39:41,15.08833939,0.0001229,53.216,154.0697,107.2312,252.8814,0.00013659,1.886e-05,0.0,0 STARLINK-3626,1 51792U 22017AA  24121.40255978  .00001886  00000-0  13659-3 0  9996,2 51792  53.2160 154.0697 0001229 107.2312 252.8814 15.08833939121570,6917.899,95.438,540.614,538.914,0.0
51792.0,STARLINK-3626,PAYLOAD,2024-04-30 19:11:59,15.08846111,0.0001098,53.216,152.2853,94.3906,265.7211,7.1005e-05,8.43e-06,0.0,0 STARLINK-3626,1 51792U 22017AA  24121.79999397  .00000843  00000-0  71005-4 0  9990,2 51792  53.2160 152.2853 0001098  94.3906 265.7211 15.08846111121630,6917.862,95.437,540.486,538.967,0.0
51792.0,STARLINK-3626,PAYLOAD,2024-05-01 11:05:51,15.08837042,0.000109,53.2156,149.3112,86.4797,273.632,0.00019631,2.838e-05,0.0,0 STARLINK-3626,1 51792U 22017AA  24122.46240068  .00002838  00000-0  19631-3 0  9991,2 51792  53.2156 149.3112 0001090  86.4797 273.6320 15.08837042121735,6917.889,95.438,540.508,539.0,0.0
